STARLINK-36715          
1 67716U 26025Z   26052.58335648 -.01505594  00000+0 -61979-2 0  9993
2 67716  97.2694 163.3927 0001517  67.2212  34.2255 15.88818243  3328
STARLINK-36385          
1 67717U 26025AA  26052.58335648 -.01524805  00000+0 -66060-2 0  9996
2 67717  97.2698 163.3809 0001464  68.2952   5.3947 15.87841871  3324
CZ-2F DEB               
1 67718U 26024E   26052.52365969  .00210270  00000+0  41028-2 0  9991
2 67718  50.3137  97.7487 0254846 216.4248 141.9134 15.18401207  2170
CZ-2F DEB               
1 67719U 26024F   26052.57216703  .00150422  00000+0  38013-2 0  9990
2 67719  49.7898  99.1977 0329059 206.8787 151.4773 14.98572686  1820
CZ-2F DEB               
1 67720U 26024G   26052.59787605  .00150655  00000+0  39083-2 0  9994
2 67720  49.8296  99.3691 0339686 203.4466 155.0669 14.95920353  2149
STARLINK-36772          
1 67721U 26026A   26042.75317130 -.00000725  22934-5  00000+0 0  9999
2 67721  97.2800  95.5280 0003400 259.0800  81.2200 16.07750770    15
STARLINK-36796          
1 67722U 26026B   26052.58335648 -.01784318  86620-3 -59380-2 0  9993
2 67722  97.2746 106.3611 0001598  94.1380  83.9293 15.90370545  2721
STARLINK-36369          
1 67723U 26026C   26052.58335648 -.01772253  85686-3 -58442-2 0  9998
2 67723  97.2745 106.3630 0001520  88.6400  93.4524 15.90550519  2722
STARLINK-36752          
1 67724U 26026D   26052.58335648 -.01769956  85686-3 -57651-2 0  9996
2 67724  97.2747 106.3661 0001623  90.2818  96.9980 15.90793589  2725
STARLINK-36754          
1 67725U 26026E   26052.58335648 -.01763389  85252-3 -56900-2 0  9996
2 67725  97.2743 106.3672 0001604  94.1740  97.1916 15.90978281  2726
STARLINK-36755          
1 67726U 26026F   26052.58335648 -.01750130  84261-3 -55795-2 0  9997
2 67726  97.2737 106.3689 0001506  96.7157  99.7606 15.91214377  2723
STARLINK-36741          
1 67727U 26026G   26052.58335648 -.01746536  84064-3 -55258-2 0  9998
2 67727  97.2731 106.3702 0001468  97.9404 101.8654 15.91363631  2725
