CCSDS_OMM_VERS = 2.0
CREATION_DATE  = 
ORIGINATOR     = 

OBJECT_NAME    = STARLINK-36715
OBJECT_ID      = 2026-025Z
CENTER_NAME    = EARTH
REF_FRAME      = TEME
TIME_SYSTEM    = UTC
MEAN_ELEMENT_THEORY = SGP/SGP4

EPOCH          = 2026-02-21T14:00:01.999872
MEAN_MOTION    = 15.88818243
ECCENTRICITY   = .00015177
INCLINATION    = 97.2694
RA_OF_ASC_NODE = 163.3927
ARG_OF_PERICENTER = 67.2212
MEAN_ANOMALY   = 34.2255

EPHEMERIS_TYPE = 0
CLASSIFICATION_TYPE = U
NORAD_CAT_ID   = 67716
ELEMENT_SET_NO = 999
REV_AT_EPOCH   = 332
BSTAR          = -.6197923E-2
MEAN_MOTION_DOT = -.1505594E-1
MEAN_MOTION_DDOT = 0

CCSDS_OMM_VERS = 2.0
CREATION_DATE  = 
ORIGINATOR     = 

OBJECT_NAME    = STARLINK-36385
OBJECT_ID      = 2026-025AA
CENTER_NAME    = EARTH
REF_FRAME      = TEME
TIME_SYSTEM    = UTC
MEAN_ELEMENT_THEORY = SGP/SGP4

EPOCH          = 2026-02-21T14:00:01.999872
MEAN_MOTION    = 15.87841871
ECCENTRICITY   = .00014641
INCLINATION    = 97.2698
RA_OF_ASC_NODE = 163.3809
ARG_OF_PERICENTER = 68.2952
MEAN_ANOMALY   = 5.3947

EPHEMERIS_TYPE = 0
CLASSIFICATION_TYPE = U
NORAD_CAT_ID   = 67717
ELEMENT_SET_NO = 999
REV_AT_EPOCH   = 332
BSTAR          = -.66059708E-2
MEAN_MOTION_DOT = -.1524805E-1
MEAN_MOTION_DDOT = 0

CCSDS_OMM_VERS = 2.0
CREATION_DATE  = 
ORIGINATOR     = 

OBJECT_NAME    = CZ-2F DEB
OBJECT_ID      = 2026-024E
CENTER_NAME    = EARTH
REF_FRAME      = TEME
TIME_SYSTEM    = UTC
MEAN_ELEMENT_THEORY = SGP/SGP4

EPOCH          = 2026-02-21T12:34:04.197216
MEAN_MOTION    = 15.18401207
ECCENTRICITY   = .02548467
INCLINATION    = 50.3137
RA_OF_ASC_NODE = 97.7487
ARG_OF_PERICENTER = 216.4248
MEAN_ANOMALY   = 141.9134

EPHEMERIS_TYPE = 0
CLASSIFICATION_TYPE = U
NORAD_CAT_ID   = 67718
ELEMENT_SET_NO = 999
REV_AT_EPOCH   = 217
BSTAR          = .41028174E-2
MEAN_MOTION_DOT = .21027E-2
MEAN_MOTION_DDOT = 0

CCSDS_OMM_VERS = 2.0
CREATION_DATE  = 
ORIGINATOR     = 

OBJECT_NAME    = CZ-2F DEB
OBJECT_ID      = 2026-024F
CENTER_NAME    = EARTH
REF_FRAME      = TEME
TIME_SYSTEM    = UTC
MEAN_ELEMENT_THEORY = SGP/SGP4

EPOCH          = 2026-02-21T13:43:55.231392
MEAN_MOTION    = 14.98572686
ECCENTRICITY   = .03290593
INCLINATION    = 49.7898
RA_OF_ASC_NODE = 99.1977
ARG_OF_PERICENTER = 206.8787
MEAN_ANOMALY   = 151.4773

EPHEMERIS_TYPE = 0
CLASSIFICATION_TYPE = U
NORAD_CAT_ID   = 67719
ELEMENT_SET_NO = 999
REV_AT_EPOCH   = 182
BSTAR          = .38013211E-2
MEAN_MOTION_DOT = .150422E-2
MEAN_MOTION_DDOT = 0

CCSDS_OMM_VERS = 2.0
CREATION_DATE  = 
ORIGINATOR     = 

OBJECT_NAME    = CZ-2F DEB
OBJECT_ID      = 2026-024G
CENTER_NAME    = EARTH
REF_FRAME      = TEME
TIME_SYSTEM    = UTC
MEAN_ELEMENT_THEORY = SGP/SGP4

EPOCH          = 2026-02-21T14:20:56.490720
MEAN_MOTION    = 14.95920353
ECCENTRICITY   = .03396867
INCLINATION    = 49.8296
RA_OF_ASC_NODE = 99.3691
ARG_OF_PERICENTER = 203.4466
MEAN_ANOMALY   = 155.0669

EPHEMERIS_TYPE = 0
CLASSIFICATION_TYPE = U
NORAD_CAT_ID   = 67720
ELEMENT_SET_NO = 999
REV_AT_EPOCH   = 214
BSTAR          = .39083327E-2
MEAN_MOTION_DOT = .150655E-2
MEAN_MOTION_DDOT = 0

CCSDS_OMM_VERS = 2.0
CREATION_DATE  = 
ORIGINATOR     = 

OBJECT_NAME    = STARLINK-36772
OBJECT_ID      = 2026-026A
CENTER_NAME    = EARTH
REF_FRAME      = TEME
TIME_SYSTEM    = UTC
MEAN_ELEMENT_THEORY = SGP/SGP4

EPOCH          = 2026-02-11T18:04:34.000320
MEAN_MOTION    = 16.07750770
ECCENTRICITY   = .00034
INCLINATION    = 97.2800
RA_OF_ASC_NODE = 95.5280
ARG_OF_PERICENTER = 259.0800
MEAN_ANOMALY   = 81.2200

EPHEMERIS_TYPE = 0
CLASSIFICATION_TYPE = U
NORAD_CAT_ID   = 67721
ELEMENT_SET_NO = 999
REV_AT_EPOCH   = 1
BSTAR          = 0
MEAN_MOTION_DOT = -.725E-5
MEAN_MOTION_DDOT = .2293429E-5

CCSDS_OMM_VERS = 2.0
CREATION_DATE  = 
ORIGINATOR     = 

OBJECT_NAME    = STARLINK-36796
OBJECT_ID      = 2026-026B
CENTER_NAME    = EARTH
REF_FRAME      = TEME
TIME_SYSTEM    = UTC
MEAN_ELEMENT_THEORY = SGP/SGP4

EPOCH          = 2026-02-21T14:00:01.999872
MEAN_MOTION    = 15.90370545
ECCENTRICITY   = .00015982
INCLINATION    = 97.2746
RA_OF_ASC_NODE = 106.3611
ARG_OF_PERICENTER = 94.1380
MEAN_ANOMALY   = 83.9293

EPHEMERIS_TYPE = 0
CLASSIFICATION_TYPE = U
NORAD_CAT_ID   = 67722
ELEMENT_SET_NO = 999
REV_AT_EPOCH   = 272
BSTAR          = -.59380239E-2
MEAN_MOTION_DOT = -.1784318E-1
MEAN_MOTION_DDOT = .86620397E-3

CCSDS_OMM_VERS = 2.0
CREATION_DATE  = 
ORIGINATOR     = 

OBJECT_NAME    = STARLINK-36369
OBJECT_ID      = 2026-026C
CENTER_NAME    = EARTH
REF_FRAME      = TEME
TIME_SYSTEM    = UTC
MEAN_ELEMENT_THEORY = SGP/SGP4

EPOCH          = 2026-02-21T14:00:01.999872
MEAN_MOTION    = 15.90550519
ECCENTRICITY   = .00015208
INCLINATION    = 97.2745
RA_OF_ASC_NODE = 106.3630
ARG_OF_PERICENTER = 88.6400
MEAN_ANOMALY   = 93.4524

EPHEMERIS_TYPE = 0
CLASSIFICATION_TYPE = U
NORAD_CAT_ID   = 67723
ELEMENT_SET_NO = 999
REV_AT_EPOCH   = 272
BSTAR          = -.5844169E-2
MEAN_MOTION_DOT = -.1772253E-1
MEAN_MOTION_DDOT = .85685919E-3

CCSDS_OMM_VERS = 2.0
CREATION_DATE  = 
ORIGINATOR     = 

OBJECT_NAME    = STARLINK-36752
OBJECT_ID      = 2026-026D
CENTER_NAME    = EARTH
REF_FRAME      = TEME
TIME_SYSTEM    = UTC
MEAN_ELEMENT_THEORY = SGP/SGP4

EPOCH          = 2026-02-21T14:00:01.999872
MEAN_MOTION    = 15.90793589
ECCENTRICITY   = .00016234
INCLINATION    = 97.2747
RA_OF_ASC_NODE = 106.3661
ARG_OF_PERICENTER = 90.2818
MEAN_ANOMALY   = 96.9980

EPHEMERIS_TYPE = 0
CLASSIFICATION_TYPE = U
NORAD_CAT_ID   = 67724
ELEMENT_SET_NO = 999
REV_AT_EPOCH   = 272
BSTAR          = -.57651374E-2
MEAN_MOTION_DOT = -.1769956E-1
MEAN_MOTION_DDOT = .8568596E-3

CCSDS_OMM_VERS = 2.0
CREATION_DATE  = 
ORIGINATOR     = 

OBJECT_NAME    = STARLINK-36754
OBJECT_ID      = 2026-026E
CENTER_NAME    = EARTH
REF_FRAME      = TEME
TIME_SYSTEM    = UTC
MEAN_ELEMENT_THEORY = SGP/SGP4

EPOCH          = 2026-02-21T14:00:01.999872
MEAN_MOTION    = 15.90978281
ECCENTRICITY   = .00016043
INCLINATION    = 97.2743
RA_OF_ASC_NODE = 106.3672
ARG_OF_PERICENTER = 94.1740
MEAN_ANOMALY   = 97.1916

EPHEMERIS_TYPE = 0
CLASSIFICATION_TYPE = U
NORAD_CAT_ID   = 67725
ELEMENT_SET_NO = 999
REV_AT_EPOCH   = 272
BSTAR          = -.56900053E-2
MEAN_MOTION_DOT = -.1763389E-1
MEAN_MOTION_DDOT = .85251644E-3

CCSDS_OMM_VERS = 2.0
CREATION_DATE  = 
ORIGINATOR     = 

OBJECT_NAME    = STARLINK-36755
OBJECT_ID      = 2026-026F
CENTER_NAME    = EARTH
REF_FRAME      = TEME
TIME_SYSTEM    = UTC
MEAN_ELEMENT_THEORY = SGP/SGP4

EPOCH          = 2026-02-21T14:00:01.999872
MEAN_MOTION    = 15.91214377
ECCENTRICITY   = .0001506
INCLINATION    = 97.2737
RA_OF_ASC_NODE = 106.3689
ARG_OF_PERICENTER = 96.7157
MEAN_ANOMALY   = 99.7606

EPHEMERIS_TYPE = 0
CLASSIFICATION_TYPE = U
NORAD_CAT_ID   = 67726
ELEMENT_SET_NO = 999
REV_AT_EPOCH   = 272
BSTAR          = -.55794793E-2
MEAN_MOTION_DOT = -.175013E-1
MEAN_MOTION_DDOT = .84260733E-3

CCSDS_OMM_VERS = 2.0
CREATION_DATE  = 
ORIGINATOR     = 

OBJECT_NAME    = STARLINK-36741
OBJECT_ID      = 2026-026G
CENTER_NAME    = EARTH
REF_FRAME      = TEME
TIME_SYSTEM    = UTC
MEAN_ELEMENT_THEORY = SGP/SGP4

EPOCH          = 2026-02-21T14:00:01.999872
MEAN_MOTION    = 15.91363631
ECCENTRICITY   = .00014682
INCLINATION    = 97.2731
RA_OF_ASC_NODE = 106.3702
ARG_OF_PERICENTER = 97.9404
MEAN_ANOMALY   = 101.8654

EPHEMERIS_TYPE = 0
CLASSIFICATION_TYPE = U
NORAD_CAT_ID   = 67727
ELEMENT_SET_NO = 999
REV_AT_EPOCH   = 272
BSTAR          = -.55257728E-2
MEAN_MOTION_DOT = -.1746536E-1
MEAN_MOTION_DDOT = .84064468E-3

